KUIPER-00008            
1 63724U 25088A   25245.20930799  .00011295  00000+0  94243-3 0  9994
2 63724  51.8892 226.3211 0010761 181.1809 178.9138 14.98948886 19784
KUIPER-00009            
1 63725U 25088B   25245.25003472  .00001595  00000+0  23856-3 0  9993
2 63725  51.9005 219.8833 0012150 197.0153 217.0914 14.79875892  5193
KUIPER-00010            
1 63726U 25088C   25244.62902682  .00026946  00000+0  73994-3 0  9990
2 63726  51.8622 211.7667 0008495 194.1506 165.9243 15.37013540 19551
KUIPER-00011            
1 63727U 25088D   25245.25003472 -.00156302  00000+0 -69333-2 0  9993
2 63727  51.8655 209.8839 0009184 200.4939  98.4140 15.21709876  5327
KUIPER-00012            
1 63728U 25088E   25245.18196404  .00038744  00000+0  10648-2 0  9996
2 63728  51.8540 209.3638 0009680 207.2329 152.8151 15.36793952 19722
KUIPER-00013            
1 63729U 25088F   25245.23781431  .00004257  00000+0  59843-3 0  9996
2 63729  51.9006 221.3910 0008634 135.1684 224.9977 14.79104601 19662
KUIPER-00014            
1 63730U 25088G   25243.68423609  .00002732  00000+0  38796-3 0  9995
2 63730  51.9011 229.2366 0008129 180.3305 179.7653 14.79851060 19232
KUIPER-00015            
1 63731U 25088H   25244.98434990  .00001205  00000+0  18182-3 0  9996
2 63731  51.8985 235.6664 0010428 172.4200 187.6922 14.81240721 19714
